[{"OBJECT_NAME":"YUNYAO-1 43","OBJECT_ID":"2025-059A","EPOCH":"2026-03-09T23:54:24.516576","MEAN_MOTION":15.10329109,"ECCENTRICITY":0.00157026,"INCLINATION":97.608,"RA_OF_ASC_NODE":250.9377,"ARG_OF_PERICENTER":132.1084,"MEAN_ANOMALY":228.1483,"EPHEMERIS_TYPE":0,"CLASSIFICATION_TYPE":"U","NORAD_CAT_ID":63344,"ELEMENT_SET_NO":999,"REV_AT_EPOCH":5332,"BSTAR":0.00032498885,"MEAN_MOTION_DOT":5.279e-5,"MEAN_MOTION_DDOT":0},{"OBJECT_NAME":"CZ-6A DEB","OBJECT_ID":"2024-140KE","EPOCH":"2026-03-09T13:17:54.060288","MEAN_MOTION":15.16973657,"ECCENTRICITY":0.0047014,"INCLINATION":88.8608,"RA_OF_ASC_NODE":269.4441,"ARG_OF_PERICENTER":134.0266,"MEAN_ANOMALY":226.4867,"EPHEMERIS_TYPE":0,"CLASSIFICATION_TYPE":"U","NORAD_CAT_ID":60875,"ELEMENT_SET_NO":999,"REV_AT_EPOCH":8467,"BSTAR":0.004516425,"MEAN_MOTION_DOT":0.00092692,"MEAN_MOTION_DDOT":0}]
